{
  "type": "FeatureCollection",
  "features": [
    {
      "type": "Feature",
      "properties": {
        "norad_id": 38091,
        "name": "BEIDOU-2 G5 (C05)",
        "group": "gnss",
        "lat": -3.071397120288085,
        "lon": -32.54872824018313,
        "alt_km": 35736.69848908553,
        "timestamp": "2025-12-25T11:37:44.677812+00:00",
        "meta_object_name": "BEIDOU-2 G5 (C05)",
        "meta_object_id": "2012-008A",
        "meta_epoch": "2025-12-24T23:39:02.942208",
        "meta_mean_motion": 1.00269891,
        "meta_eccentricity": 0.0013097,
        "meta_inclination": 3.1377,
        "meta_ra_of_asc_node": 70.6643,
        "meta_arg_of_pericenter": 232.2116,
        "meta_mean_anomaly": 204.3728,
        "meta_ephemeris_type": 0,
        "meta_classification_type": "U",
        "meta_norad_cat_id": 38091,
        "meta_element_set_no": 999,
        "meta_rev_at_epoch": 5062,
        "meta_bstar": 0,
        "meta_mean_motion_dot": 7.7e-07,
        "meta_mean_motion_ddot": 0,
        "tle_line1": "1 38091U 12008A   25358.98545072  .00000077  00000+0  00000+0 0  9997",
        "tle_line2": "2 38091   3.1377  70.6643 0013097 232.2116 204.3728  1.00269891 50622"
      },
      "geometry": {
        "type": "Point",
        "coordinates": [
          -32.54872824018313,
          -3.071397120288085
        ]
      }
    },
    {
      "type": "Feature",
      "properties": {
        "norad_id": 38250,
        "name": "BEIDOU-2 M3 (C11)",
        "group": "gnss",
        "lat": -0.6012128213314226,
        "lon": 131.11886169249019,
        "alt_km": 21533.987451667737,
        "timestamp": "2025-12-25T11:37:44.677824+00:00",
        "meta_object_name": "BEIDOU-2 M3 (C11)",
        "meta_object_id": "2012-018A",
        "meta_epoch": "2025-12-24T03:22:03.617760",
        "meta_mean_motion": 1.86230154,
        "meta_eccentricity": 0.00241099,
        "meta_inclination": 55.9106,
        "meta_ra_of_asc_node": 310.7747,
        "meta_arg_of_pericenter": 275.3713,
        "meta_mean_anomaly": 84.3565,
        "meta_ephemeris_type": 0,
        "meta_classification_type": "U",
        "meta_norad_cat_id": 38250,
        "meta_element_set_no": 999,
        "meta_rev_at_epoch": 9268,
        "meta_bstar": 0,
        "meta_mean_motion_dot": -5.3e-07,
        "meta_mean_motion_ddot": 0,
        "tle_line1": "1 38250U 12018A   25358.14031965 -.00000053  00000+0  00000+0 0  9999",
        "tle_line2": "2 38250  55.9106 310.7747 0024109 275.3713  84.3565  1.86230154 92685"
      },
      "geometry": {
        "type": "Point",
        "coordinates": [
          131.11886169249019,
          -0.6012128213314226
        ]
      }
    },
    {
      "type": "Feature",
      "properties": {
        "norad_id": 38251,
        "name": "BEIDOU-2 M4 (C12)",
        "group": "gnss",
        "lat": -36.876452524412066,
        "lon": 160.56590557057598,
        "alt_km": 21507.011993345306,
        "timestamp": "2025-12-25T11:37:44.677836+00:00",
        "meta_object_name": "BEIDOU-2 M4 (C12)",
        "meta_object_id": "2012-018B",
        "meta_epoch": "2025-12-24T01:44:14.261856",
        "meta_mean_motion": 1.86229893,
        "meta_eccentricity": 0.00152512,
        "meta_inclination": 55.8118,
        "meta_ra_of_asc_node": 310.0049,
        "meta_arg_of_pericenter": 279.3729,
        "meta_mean_anomaly": 80.4579,
        "meta_ephemeris_type": 0,
        "meta_classification_type": "U",
        "meta_norad_cat_id": 38251,
        "meta_element_set_no": 999,
        "meta_rev_at_epoch": 9268,
        "meta_bstar": 0,
        "meta_mean_motion_dot": -5.3e-07,
        "meta_mean_motion_ddot": 0,
        "tle_line1": "1 38251U 12018B   25358.07238729 -.00000053  00000+0  00000+0 0  9999",
        "tle_line2": "2 38251  55.8118 310.0049 0015251 279.3729  80.4579  1.86229893 92685"
      },
      "geometry": {
        "type": "Point",
        "coordinates": [
          160.56590557057598,
          -36.876452524412066
        ]
      }
    },
    {
      "type": "Feature",
      "properties": {
        "norad_id": 38652,
        "name": "SES-5 (EGNOS/PRN 136)",
        "group": "gnss",
        "lat": -0.046648763216177454,
        "lon": -86.34423104564435,
        "alt_km": 35778.60740561327,
        "timestamp": "2025-12-25T11:37:44.677855+00:00",
        "meta_object_name": "SES-5 (EGNOS/PRN 136)",
        "meta_object_id": "2012-036A",
        "meta_epoch": "2025-12-24T23:23:41.912160",
        "meta_mean_motion": 1.00270343,
        "meta_eccentricity": 0.0001861,
        "meta_inclination": 0.058,
        "meta_ra_of_asc_node": 304.9824,
        "meta_arg_of_pericenter": 323.8941,
        "meta_mean_anomaly": 180.7728,
        "meta_ephemeris_type": 0,
        "meta_classification_type": "U",
        "meta_norad_cat_id": 38652,
        "meta_element_set_no": 999,
        "meta_rev_at_epoch": 4271,
        "meta_bstar": 0,
        "meta_mean_motion_dot": 5.5e-07,
        "meta_mean_motion_ddot": 0,
        "tle_line1": "1 38652U 12036A   25358.97479065  .00000055  00000+0  00000+0 0  9994",
        "tle_line2": "2 38652   0.0580 304.9824 0001861 323.8941 180.7728  1.00270343 42712"
      },
      "geometry": {
        "type": "Point",
        "coordinates": [
          -86.34423104564435,
          -0.046648763216177454
        ]
      }
    },
    {
      "type": "Feature",
      "properties": {
        "norad_id": 38775,
        "name": "BEIDOU-2 M6 (C14)",
        "group": "gnss",
        "lat": 46.60627964308232,
        "lon": 113.29950303216766,
        "alt_km": 21515.540856040072,
        "timestamp": "2025-12-25T11:37:44.677868+00:00",
        "meta_object_name": "BEIDOU-2 M6 (C14)",
        "meta_object_id": "2012-050B",
        "meta_epoch": "2025-12-24T07:41:05.368128",
        "meta_mean_motion": 1.86230801,
        "meta_eccentricity": 0.00114872,
        "meta_inclination": 56.388,
        "meta_ra_of_asc_node": 68.6832,
        "meta_arg_of_pericenter": 343.1884,
        "meta_mean_anomaly": 16.8281,
        "meta_ephemeris_type": 0,
        "meta_classification_type": "U",
        "meta_norad_cat_id": 38775,
        "meta_element_set_no": 999,
        "meta_rev_at_epoch": 9005,
        "meta_bstar": 0,
        "meta_mean_motion_dot": -2.4e-07,
        "meta_mean_motion_ddot": 0,
        "tle_line1": "1 38775U 12050B   25358.32020102 -.00000024  00000+0  00000+0 0  9996",
        "tle_line2": "2 38775  56.3880  68.6832 0011487 343.1884  16.8281  1.86230801 90056"
      },
      "geometry": {
        "type": "Point",
        "coordinates": [
          113.29950303216766,
          46.60627964308232
        ]
      }
    },
    {
      "type": "Feature",
      "properties": {
        "norad_id": 38779,
        "name": "GSAT-10 (GAGAN/PRN 128)",
        "group": "gnss",
        "lat": 0.050162045601354364,
        "lon": -8.314784863248798,
        "alt_km": 35792.22313946963,
        "timestamp": "2025-12-25T11:37:44.677880+00:00",
        "meta_object_name": "GSAT-10 (GAGAN/PRN 128)",
        "meta_object_id": "2012-051B",
        "meta_epoch": "2025-12-24T22:22:53.622048",
        "meta_mean_motion": 1.00271102,
        "meta_eccentricity": 0.0002181,
        "meta_inclination": 0.0626,
        "meta_ra_of_asc_node": 262.1776,
        "meta_arg_of_pericenter": 219.7233,
        "meta_mean_anomaly": 30.5548,
        "meta_ephemeris_type": 0,
        "meta_classification_type": "U",
        "meta_norad_cat_id": 38779,
        "meta_element_set_no": 999,
        "meta_rev_at_epoch": 4835,
        "meta_bstar": 0,
        "meta_mean_motion_dot": -1.44e-06,
        "meta_mean_motion_ddot": 0,
        "tle_line1": "1 38779U 12051B   25358.93256507 -.00000144  00000+0  00000+0 0  9991",
        "tle_line2": "2 38779   0.0626 262.1776 0002181 219.7233  30.5548  1.00271102 48359"
      },
      "geometry": {
        "type": "Point",
        "coordinates": [
          -8.314784863248798,
          0.050162045601354364
        ]
      }
    },
    {
      "type": "Feature",
      "properties": {
        "norad_id": 38833,
        "name": "GPS BIIF-3  (PRN 24)",
        "group": "gnss",
        "lat": 40.78166443908533,
        "lon": -68.87735211763513,
        "alt_km": 19947.712781513153,
        "timestamp": "2025-12-25T11:37:44.677892+00:00",
        "meta_object_name": "GPS BIIF-3  (PRN 24)",
        "meta_object_id": "2012-053A",
        "meta_epoch": "2025-12-24T07:38:21.199488",
        "meta_mean_motion": 2.00565058,
        "meta_eccentricity": 0.01760755,
        "meta_inclination": 53.5598,
        "meta_ra_of_asc_node": 150.7645,
        "meta_arg_of_pericenter": 64.1634,
        "meta_mean_anomaly": 297.6191,
        "meta_ephemeris_type": 0,
        "meta_classification_type": "U",
        "meta_norad_cat_id": 38833,
        "meta_element_set_no": 999,
        "meta_rev_at_epoch": 9593,
        "meta_bstar": 0,
        "meta_mean_motion_dot": 8.3e-07,
        "meta_mean_motion_ddot": 0,
        "tle_line1": "1 38833U 12053A   25358.31830092  .00000083  00000+0  00000+0 0  9994",
        "tle_line2": "2 38833  53.5598 150.7645 0176075  64.1634 297.6191  2.00565058 95932"
      },
      "geometry": {
        "type": "Point",
        "coordinates": [
          -68.87735211763513,
          40.78166443908533
        ]
      }
    }
  ]
}